QIANFAN-41              
1 62242U 24232F   25267.95741598  .00000128  00000+0  17989-3 0  9996
2 62242  88.9987  49.1350 0015456  63.4866 296.7868 13.50971633 88610
QIANFAN-42              
1 62243U 24232G   25267.95382865  .00000669  00000+0  28303-3 0  9997
2 62243  88.9987  46.3422 0014286 350.4745   9.6174 14.24358084 90159
QIANFAN-43              
1 62244U 24232H   25267.95334975  .00000134  00000+0  18840-3 0  9999
2 62244  88.9992  49.1973 0017065  67.8701 292.4259 13.50968943 57223
QIANFAN-44              
1 62245U 24232J   25267.94096000  .00000114  00000+0  15800-3 0  9994
2 62245  88.9991  49.0104 0015234  65.6755 294.5985 13.50974164 88695
QIANFAN-45              
1 62246U 24232K   25267.98212192  .00000118  00000+0  16431-3 0  9996
2 62246  88.9994  49.1501 0015870  65.0827 295.1971 13.50970899 88627
QIANFAN-46              
1 62247U 24232L   25267.93272603  .00000110  00000+0  15146-3 0  9999
2 62247  88.9990  49.2273 0016034  70.0891 290.1986 13.50971527 88575
QIANFAN-47              
1 62248U 24232M   25267.93688390  .00000089  00000+0  11885-3 0  9995
2 62248  88.9986  49.1630 0016454  69.2642 291.0271 13.50973123 88602
QIANFAN-48              
1 62249U 24232N   25267.97391959  .00000135  00000+0  19054-3 0  9990
2 62249  88.9990  49.1580 0018738  71.1552 289.1629 13.50968918 88613
